GOES 18                 
1 51850U 22021A   26194.03484329  .00000095  00000+0  00000+0 0  9993
2 51850   0.0164 127.5086 0000603  67.6267 331.3316  1.00273053  6854
STARLINK-3542           
1 51852U 22022A   26194.16668980 -.00010074  00000+0 -27825-3 0  9995
2 51852  53.1589 173.5007 0001391  83.9175 202.8459 15.35402326  5785
STARLINK-3541           
1 51854U 22022C   26193.34584710  .00013654  00000+0  64891-3 0  9993
2 51854  53.2084 170.7626 0002610  41.5790 318.5405 15.19502413241960
STARLINK-3545           
1 51855U 22022D   26194.16668980 -.00020372  00000+0 -57469-3 0  9997
2 51855  53.1689 173.6696 0001407  72.7084 187.1198 15.35398681  5735
STARLINK-3568           
1 51856U 22022E   26194.16668980 -.00015096  00000+0 -47566-3 0  9992
2 51856  53.1602 173.7241 0001434  86.0945 125.5803 15.31699726  5786
STARLINK-3571           
1 51857U 22022F   26194.16668980 -.00013117  00000+0 -41157-3 0  9995
2 51857  53.1592 173.6391 0001333  84.4574 230.2241 15.31706319  5796
STARLINK-3563           
1 51858U 22022G   26194.16668980  .01144274  00000+0  32383-1 0  9993
2 51858  53.1602 174.0274 0002065  78.1935  17.5430 15.33295912  5732
STARLINK-3560           
1 51859U 22022H   26194.16668980 -.00030455  00000+0 -10472-2 0  9996
2 51859  53.1631 164.4892 0001080  81.8679  50.5973 15.29362197  5785
STARLINK-3559           
1 51860U 22022J   26194.18660635  .00063953  00000+0  39438-2 0  9999
2 51860  53.1588 165.4869 0001902  89.8589 270.2620 15.09357555242068
STARLINK-3562           
1 51861U 22022K   26194.16668980  .00015536  00000+0  85072-3 0  9999
2 51861  53.1588 165.5144 0001035 103.5989 258.7920 15.14409587  5780
STARLINK-3508           
1 51862U 22022L   26193.91848047  .00007750  00000+0  50368-3 0  9995
2 51862  53.1598 166.6954 0001586  59.2201 300.8946 15.08897756242072
STARLINK-3555           
1 51863U 22022M   26193.90014102 -.00000912  00000+0 -39218-4 0  9999
2 51863  53.1570 166.7779 0001078  98.6860 261.4253 15.08828763242012
STARLINK-3548           
1 51864U 22022N   26193.37389326 -.00000558  00000+0 -16957-4 0  9995
2 51864  53.1594 169.0655 0001268  78.2940 281.8194 15.08832308241987
STARLINK-3503           
1 51865U 22022P   26193.82648663  .00004998  00000+0  33155-3 0  9996
2 51865  53.1555 167.1056 0003701 115.9732 244.1640 15.08883020242000
STARLINK-3553           
1 51866U 22022Q   26193.95628736 -.00000923  00000+0 -39915-4 0  9997
2 51866  53.1583 166.3802 0001345  85.0920 275.0225 15.08837906242026
STARLINK-3590           
1 51867U 22022R   26194.16668980  .00014316  00000+0  83813-3 0  9991
2 51867  53.1589 165.5620 0000693  80.7181 357.0069 15.12070271  5683
STARLINK-3578           
1 51868U 22022S   26193.36654629  .00000606  00000+0  56141-4 0  9990
2 51868  53.1594 169.1761 0001226  80.5450 279.5680 15.08838016241937
STARLINK-3588           
1 51869U 22022T   26193.94430231 -.00000482  00000+0 -12177-4 0  9991
2 51869  53.1601 166.5793 0001234  78.4871 281.6259 15.08831795242029
STARLINK-3591           
1 51870U 22022U   26193.95166480  .00000291  00000+0  36357-4 0  9998
2 51870  53.1597 166.5459 0001512  83.2305 276.8858 15.08844189242076
STARLINK-3567           
1 51871U 22022V   26193.34445947  .00000176  00000+0  29162-4 0  9998
2 51871  53.1606 169.2758 0000936  65.1307 294.9782 15.08835334242046
STARLINK-3554           
1 51872U 22022W   26193.94799509  .00001059  00000+0  84613-4 0  9994
2 51872  53.1586 166.5645 0001497  69.2284 290.8868 15.08838454242025
STARLINK-3582           
1 51873U 22022X   26193.91107966  .00024807  00000+0  10271-2 0  9995
2 51873  53.1956 152.7495 0001728 309.3206  50.7639 15.23811157242225
STARLINK-3574           
1 51874U 22022Y   26194.16668980  .00020576  00000+0  11769-2 0  9994
2 51874  53.1607 165.5551 0001947  63.4656 118.8977 15.12655122  5789
STARLINK-3585           
1 51875U 22022Z   26193.91485014  .00000202  00000+0  30762-4 0  9992
2 51875  53.1592 166.6252 0001339  86.7354 273.3790 15.08837724242026
STARLINK-3583           
1 51876U 22022AA  26193.40334572  .00000635  00000+0  57968-4 0  9996
2 51876  53.1600 169.0097 0001299  80.1939 279.9199 15.08836872241941
STARLINK-3556           
1 51877U 22022AB  26194.16668980 -.00002751  00000+0 -70375-4 0  9994
2 51877  53.1601 151.5170 0001026  77.8000 135.3157 15.34371891  5795
STARLINK-3575           
1 51878U 22022AC  26193.92591583  .00000961  00000+0  78455-4 0  9998
2 51878  53.1603 166.6623 0000345  50.6397 309.4625 15.08837626242026
STARLINK-3572           
1 51879U 22022AD  26194.00002315 -.00014031  00000+0 -40475-3 0  9994
2 51879  53.1591 154.2569 0001679  92.9593  32.0332 15.34410107  5765
STARLINK-3566           
1 51880U 22022AE  26194.16668980  .00020612  00000+0  11642-2 0  9992
2 51880  53.1599 165.2577 0003170  67.5331 163.1050 15.13103555  5634
STARLINK-3504           
1 51881U 22022AF  26194.09383425  .00000587  00000+0  29187-4 0  9997
2 51881  53.1612 153.7483 0001390  83.6938 276.4223 15.33550345242260
