OBJECT_NAME,OBJECT_ID,EPOCH,MEAN_MOTION,ECCENTRICITY,INCLINATION,RA_OF_ASC_NODE,ARG_OF_PERICENTER,MEAN_ANOMALY,EPHEMERIS_TYPE,CLASSIFICATION_TYPE,NORAD_CAT_ID,ELEMENT_SET_NO,REV_AT_EPOCH,BSTAR,MEAN_MOTION_DOT,MEAN_MOTION_DDOT
GOES 18,2022-021A,2026-07-13T00:50:10.460256,1.00273053,.0000603,0.0164,127.5086,67.6267,331.3316,0,U,51850,999,685,0,.95E-6,0
STARLINK-3542,2022-022A,2026-07-13T04:00:01.998720,15.35402326,.0001391,53.1589,173.5007,83.9175,202.8459,0,U,51852,999,578,-.27825E-3,-.10074E-3,0
STARLINK-3541,2022-022C,2026-07-12T08:18:01.189440,15.19502413,.00026103,53.2084,170.7626,41.5790,318.5405,0,U,51854,999,24196,.64891033E-3,.13654E-3,0
STARLINK-3545,2022-022D,2026-07-13T04:00:01.998720,15.35398681,.0001407,53.1689,173.6696,72.7084,187.1198,0,U,51855,999,573,-.57469E-3,-.20372E-3,0
STARLINK-3568,2022-022E,2026-07-13T04:00:01.998720,15.31699726,.0001434,53.1602,173.7241,86.0945,125.5803,0,U,51856,999,578,-.47566E-3,-.15096E-3,0
STARLINK-3571,2022-022F,2026-07-13T04:00:01.998720,15.31706319,.0001333,53.1592,173.6391,84.4574,230.2241,0,U,51857,999,579,-.41157E-3,-.13117E-3,0
STARLINK-3563,2022-022G,2026-07-13T04:00:01.998720,15.33295912,.0002065,53.1602,174.0274,78.1935,17.5430,0,U,51858,999,573,.32383E-1,.1144274E-1,0
STARLINK-3560,2022-022H,2026-07-13T04:00:01.998720,15.29362197,.000108,53.1631,164.4892,81.8679,50.5973,0,U,51859,999,578,-.10472E-2,-.30455E-3,0
STARLINK-3559,2022-022J,2026-07-13T04:28:42.788640,15.09357555,.0001902,53.1588,165.4869,89.8589,270.2620,0,U,51860,999,24206,.39438E-2,.63953E-3,0
STARLINK-3562,2022-022K,2026-07-13T04:00:01.998720,15.14409587,.0001035,53.1588,165.5144,103.5989,258.7920,0,U,51861,999,578,.85072E-3,.15536E-3,0
STARLINK-3508,2022-022L,2026-07-12T22:02:36.712608,15.08897756,.0001586,53.1598,166.6954,59.2201,300.8946,0,U,51862,999,24207,.50368E-3,.775E-4,0
STARLINK-3555,2022-022M,2026-07-12T21:36:12.184128,15.08828763,.0001078,53.1570,166.7779,98.6860,261.4253,0,U,51863,999,24201,-.39218E-4,-.912E-5,0
STARLINK-3548,2022-022N,2026-07-12T08:58:24.377664,15.08832308,.00012685,53.1594,169.0655,78.2940,281.8194,0,U,51864,999,24198,-.16957016E-4,-.558E-5,0
STARLINK-3503,2022-022P,2026-07-12T19:50:08.444832,15.08883020,.0003701,53.1555,167.1056,115.9732,244.1640,0,U,51865,999,24200,.33155E-3,.4998E-4,0
STARLINK-3553,2022-022Q,2026-07-12T22:57:03.227904,15.08837906,.0001345,53.1583,166.3802,85.0920,275.0225,0,U,51866,999,24202,-.39915E-4,-.923E-5,0
STARLINK-3590,2022-022R,2026-07-13T04:00:01.998720,15.12070271,.0000693,53.1589,165.5620,80.7181,357.0069,0,U,51867,999,568,.83813E-3,.14316E-3,0
STARLINK-3578,2022-022S,2026-07-12T08:47:49.599456,15.08838016,.00012265,53.1594,169.1761,80.5450,279.5680,0,U,51868,999,24193,.5614126E-4,.606E-5,0
STARLINK-3588,2022-022T,2026-07-12T22:39:47.719584,15.08831795,.0001234,53.1601,166.5793,78.4871,281.6259,0,U,51869,999,24202,-.12177E-4,-.482E-5,0
STARLINK-3591,2022-022U,2026-07-12T22:50:23.838720,15.08844189,.0001512,53.1597,166.5459,83.2305,276.8858,0,U,51870,999,24207,.36357E-4,.291E-5,0
STARLINK-3567,2022-022V,2026-07-12T08:16:01.298208,15.08835334,.00009364,53.1606,169.2758,65.1307,294.9782,0,U,51871,999,24204,.2916237E-4,.176E-5,0
STARLINK-3554,2022-022W,2026-07-12T22:45:06.775776,15.08838454,.0001497,53.1586,166.5645,69.2284,290.8868,0,U,51872,999,24202,.84613E-4,.1059E-4,0
STARLINK-3582,2022-022X,2026-07-12T21:51:57.282624,15.23811157,.0001728,53.1956,152.7495,309.3206,50.7639,0,U,51873,999,24222,.10271E-2,.24807E-3,0
STARLINK-3574,2022-022Y,2026-07-13T04:00:01.998720,15.12655122,.0001947,53.1607,165.5551,63.4656,118.8977,0,U,51874,999,578,.11769E-2,.20576E-3,0
STARLINK-3585,2022-022Z,2026-07-12T21:57:23.052096,15.08837724,.0001339,53.1592,166.6252,86.7354,273.3790,0,U,51875,999,24202,.30762E-4,.202E-5,0
STARLINK-3583,2022-022AA,2026-07-12T09:40:49.070208,15.08836872,.00012995,53.1600,169.0097,80.1939,279.9199,0,U,51876,999,24194,.57968136E-4,.635E-5,0
STARLINK-3556,2022-022AB,2026-07-13T04:00:01.998720,15.34371891,.0001026,53.1601,151.5170,77.8000,135.3157,0,U,51877,999,579,-.70375E-4,-.2751E-4,0
STARLINK-3575,2022-022AC,2026-07-12T22:13:19.127712,15.08837626,.0000345,53.1603,166.6623,50.6397,309.4625,0,U,51878,999,24202,.78455E-4,.961E-5,0
STARLINK-3572,2022-022AD,2026-07-13T00:00:02.000160,15.34410107,.0001679,53.1591,154.2569,92.9593,32.0332,0,U,51879,999,576,-.40475E-3,-.14031E-3,0
STARLINK-3566,2022-022AE,2026-07-13T04:00:01.998720,15.13103555,.000317,53.1599,165.2577,67.5331,163.1050,0,U,51880,999,563,.11642E-2,.20612E-3,0
STARLINK-3504,2022-022AF,2026-07-13T02:15:07.279200,15.33550345,.000139,53.1612,153.7483,83.6938,276.4223,0,U,51881,999,24226,.29187E-4,.587E-5,0
